APRIZESAT 2             
1 28366U 04025A   26163.27495076  .00000149  00000+0  59925-4 0  9991
2 28366  98.1009 329.5336 0104265 264.8543  94.0739 14.38034037150938
SAUDICOMSAT 1           
1 28369U 04025D   26162.99777246  .00000326  00000+0  85756-4 0  9992
2 28369  98.5771 172.9892 0032957  41.1947 319.1728 14.55469564163377
SAUDICOMSAT 2           
1 28370U 04025E   26163.29465540  .00000253  00000+0  76992-4 0  9990
2 28370  98.6642 175.4024 0054134 274.6436  84.8576 14.49978659159396
APRIZESAT 1             
1 28372U 04025G   26163.26342663  .00000209  00000+0  63491-4 0  9990
2 28372  98.6304 173.8550 0044803 168.6530 191.5685 14.51774662161197
NANOSAT-1               
1 28493U 04049B   26163.30180245  .00000956  00000+0  13330-3 0  9996
2 28493  98.2269 299.8435 0003064 323.7727  36.3276 14.80150509154727
SAUDICOMSAT 7           
1 31119U 07012C   26163.19886333  .00000432  00000+0  86637-4 0  9996
2 31119  98.3776 137.2285 0054960 210.9813 148.8144 14.66105905 21700
SAUDICOMSAT 6           
1 31121U 07012E   26163.16451576  .00000595  00000+0  12342-3 0  9994
2 31121  98.4097 130.5876 0071421 343.5194  16.3685 14.62552573 19459
SAUDICOMSAT 5           
1 31124U 07012H   26163.17926683  .00000474  00000+0  90184-4 0  9991
2 31124  98.3487 137.9568 0048209 140.1379 220.3382 14.68150182 22863
SAUDICOMSAT 3           
1 31125U 07012J   26162.87639606  .00000716  00000+0  12485-3 0  9990
2 31125  98.3141 138.1966 0040432  69.5044 291.0495 14.70696806 24042
SAUDICOMSAT 4           
1 31127U 07012L   26163.16708922  .00000477  00000+0  97630-4 0  9993
2 31127  98.3980 135.6351 0062050 274.2539  85.1574 14.64507680 20555
APRIZESAT 4             
1 35684U 09041D   26163.19966767  .00000630  00000+0  81734-4 0  9994
2 35684  98.1411 238.4206 0042747 339.4813  20.4682 14.83873191910627
APRIZESAT 3             
1 35686U 09041F   26163.15019648  .00001389  00000+0  12416-3 0  9991
2 35686  98.2052 316.1331 0062747  83.9418 276.8948 14.96226409915623
S-NET D                 
1 43186U 18014G   26163.18375949  .00004969  00000+0  25738-3 0  9995
2 43186  97.5372  68.0060 0009421  45.5733 314.6269 15.16627635458000
S-NET B                 
1 43187U 18014H   26163.19511552  .00005165  00000+0  26755-3 0  9998
2 43187  97.5379  68.0036 0009929  40.8556 319.3419 15.16598115458004
S-NET A                 
1 43188U 18014J   26163.24864102  .00004914  00000+0  25445-3 0  9993
2 43188  97.5389  68.2645 0009800  41.6460 318.5518 15.16635862458018
S-NET C                 
1 43189U 18014K   26163.26494565  .00005273  00000+0  27306-3 0  9995
2 43189  97.5405  68.3547 0010979  33.6648 326.5280 15.16590724456568
SALSAT                  
1 46495U 20068K   26163.23969061  .00008047  00000+0  28202-3 0  9993
2 46495  97.8848 166.0033 0008469 328.8216  31.2520 15.29730151314601
OOV-CUBE (TUBSAT-30)    
1 60240U 24128F   26162.59923854  .00001977  00000+0  15980-3 0  9990
2 60240  61.9950 245.0577 0045327 132.4986 227.9949 15.02751187105272
LPNTSAT-001 (IOD-1)     
1 68408U 26065A   26163.20051764  .00003018  00000+0  14904-3 0  9990
2 68408  97.4031  43.8159 0017205  27.4635 332.7505 15.18513387 11508
